STARLINK-36787          
1 68094U 26042AB  26185.78825145  .00040521  00000+0  12025-2 0  9996
2 68094  53.1613 352.6661 0001182  64.6492 295.4633 15.34437641 20259
STARLINK-36790          
1 68095U 26042AC  26185.73784858  .00066816  00000+0  19672-2 0  9997
2 68095  53.1614 353.0657 0001111  75.0475 285.0651 15.34463439 20248
STARLINK-36328          
1 68096U 26042AD  26185.90386840  .00039122  00000+0  11616-2 0  9996
2 68096  53.1605 352.6818 0001284 254.3909 105.6952 15.34436612 20264
STARLINK-36853          
1 68097U 26042AE  26185.88915521  .00045568  00000+0  13495-2 0  9996
2 68097  53.1588 352.5959 0000808  91.6703 268.4393 15.34448919 20265
GLOBAL-34               
1 68098U 26043A   26186.14103814  .00017796  00000+0  55345-3 0  9995
2 68098  42.0210 116.9423 0002092  18.1769 341.9144 15.32962510 18585
STARLINK-37022          
1 68101U 26044A   26185.85334918  .00049553  00000+0  15258-2 0  9993
2 68101  97.2807 145.8275 0001028 289.8531  70.2601 15.33473357 19535
STARLINK-37046          
1 68102U 26044B   26185.85062594  .00038819  00000+0  11971-2 0  9993
2 68102  97.2835 145.8324 0001798  93.5360 266.6088 15.33482440 19539
STARLINK-37018          
1 68103U 26044C   26185.84790782  .00038874  00000+0  11988-2 0  9999
2 68103  97.2835 145.8360 0001732 102.1106 258.0331 15.33482726 19536
STARLINK-37041          
1 68104U 26044D   26185.84246755  .00038199  00000+0  11785-2 0  9991
2 68104  97.2838 145.8430 0001699  99.2388 260.9047 15.33472094 19531
STARLINK-37021          
1 68105U 26044E   26185.64399205  .00068332  00000+0  20969-2 0  9995
2 68105  97.2850 145.6523 0002529  95.4741 264.6791 15.33488463 19502
STARLINK-37024          
1 68106U 26044F   26185.83705581  .00048279  00000+0  14885-2 0  9993
2 68106  97.2839 145.8499 0001946 110.0238 250.1214 15.33437468 19533
STARLINK-37005          
1 68107U 26044G   26185.84519836  .00051324  00000+0  15798-2 0  9990
2 68107  97.2853 145.8388 0002054  96.5232 263.6244 15.33475348 19531
STARLINK-37017          
1 68108U 26044H   26185.89956497  .00038058  00000+0  11737-2 0  9992
2 68108  97.2839 145.9178 0001538 100.2084 259.9332 15.33485385 19547
STARLINK-36833          
1 68109U 26044J   26185.82887562  .00051730  00000+0  15906-2 0  9996
2 68109  97.2839 145.8615 0002360  92.9480 267.2033 15.33506829 19530
STARLINK-36830          
1 68110U 26044K   26185.63582761  .00047156  00000+0  14515-2 0  9992
2 68110  97.2843 145.6648 0000541 147.8925 212.2351 15.33497283 19507
STARLINK-36791          
1 68111U 26044L   26185.82615578  .00049283  00000+0  15160-2 0  9997
2 68111  97.2836 145.8662 0002369  96.6269 263.5244 15.33506163 19531
STARLINK-36893          
1 68112U 26044M   26185.82343620  .00045378  00000+0  13976-2 0  9998
2 68112  97.2832 145.8702 0001876 101.5100 258.6354 15.33487081 19539
STARLINK-36937          
1 68113U 26044N   26185.81799909  .00046425  00000+0  14298-2 0  9995
2 68113  97.2833 145.8769 0002041 100.8022 259.3451 15.33482641 19537
STARLINK-36229          
1 68114U 26044P   26185.62495710  .00040575  00000+0  12511-2 0  9994
2 68114  97.2833 145.6804 0001859  98.6758 261.4695 15.33476697 19507
STARLINK-36392          
1 68115U 26044Q   26185.61951738  .00036838  00000+0  11368-2 0  9997
2 68115  97.2835 145.6866 0001617 102.9046 257.2378 15.33472726 19509
STARLINK-36805          
1 68116U 26044R   26185.87781571  .00046488  00000+0  14314-2 0  9998
2 68116  97.2834 145.9486 0001919  95.1496 264.9966 15.33488680 19545
STARLINK-36844          
1 68117U 26044S   26185.87511099  .00059867  00000+0  18408-2 0  9998
2 68117  97.2844 145.9531 0002159 100.9143 259.2343 15.33465561 19548
STARLINK-36789          
1 68118U 26044T   26185.61135192  .00047501  00000+0  14616-2 0  9996
2 68118  97.2816 145.6973 0001031 286.4097  73.7032 15.33506635 19509
STARLINK-36850          
1 68119U 26044U   26185.60863468  .00046112  00000+0  14197-2 0  9991
2 68119  97.2844 145.7024 0001517  90.3124 269.8293 15.33494015 19506
STARLINK-36868          
1 68120U 26044V   26185.86693882  .00044746  00000+0  13786-2 0  9996
2 68120  97.2831 145.9651 0001933  87.5145 272.6319 15.33481191 19541
STARLINK-36855          
1 68121U 26044W   26185.60320912  .00061984  00000+0  19046-2 0  9998
2 68121  97.2838 145.7117 0002301 104.2849 255.8649 15.33477362 19502
STARLINK-36366          
1 68122U 26044X   26185.86150240  .00045994  00000+0  14164-2 0  9991
2 68122  97.2830 145.9724 0001094  95.9890 264.1477 15.33489314 19547
STARLINK-36922          
1 68123U 26044Y   26185.85608439  .00039126  00000+0  12081-2 0  9995
2 68123  97.2837 145.9788 0002885  95.4845 264.6727 15.33438236 19549
STARLINK-36938          
1 68124U 26044Z   26185.85292080  .00045186  00000+0  13919-2 0  9991
2 68124  97.2840 148.8795 0001828  91.3830 268.7622 15.33483129 19730
STARLINK-36839          
1 68125U 26044AA  26186.05455270  .00049087  00000+0  15094-2 0  9997
2 68125  97.2835 146.1690 0001891 108.6400 251.5048 15.33520272 19570
