OBJECT_NAME,OBJECT_ID,EPOCH,MEAN_MOTION,ECCENTRICITY,INCLINATION,RA_OF_ASC_NODE,ARG_OF_PERICENTER,MEAN_ANOMALY,EPHEMERIS_TYPE,CLASSIFICATION_TYPE,NORAD_CAT_ID,ELEMENT_SET_NO,REV_AT_EPOCH,BSTAR,MEAN_MOTION_DOT,MEAN_MOTION_DDOT
STARLINK-36787,2026-042AB,2026-07-04T18:55:04.925280,15.34437641,.00011825,53.1613,352.6661,64.6492,295.4633,0,U,68094,999,2025,.12025213E-2,.40521E-3,0
STARLINK-36790,2026-042AC,2026-07-04T17:42:30.117312,15.34463439,.00011115,53.1614,353.0657,75.0475,285.0651,0,U,68095,999,2024,.19671676E-2,.66816E-3,0
STARLINK-36328,2026-042AD,2026-07-04T21:41:34.229760,15.34436612,.0001284,53.1605,352.6818,254.3909,105.6952,0,U,68096,999,2026,.11616337E-2,.39122E-3,0
STARLINK-36853,2026-042AE,2026-07-04T21:20:23.010144,15.34448919,.00008084,53.1588,352.5959,91.6703,268.4393,0,U,68097,999,2026,.13495276E-2,.45568E-3,0
GLOBAL-34,2026-043A,2026-07-05T03:23:05.695296,15.32962510,.00020924,42.0210,116.9423,18.1769,341.9144,0,U,68098,999,1858,.55345108E-3,.17796E-3,0
STARLINK-37022,2026-044A,2026-07-04T20:28:49.369152,15.33473357,.00010288,97.2807,145.8275,289.8531,70.2601,0,U,68101,999,1953,.15258313E-2,.49553E-3,0
STARLINK-37046,2026-044B,2026-07-04T20:24:54.081216,15.33482440,.00017987,97.2835,145.8324,93.5360,266.6088,0,U,68102,999,1953,.11971413E-2,.38819E-3,0
STARLINK-37018,2026-044C,2026-07-04T20:20:59.235648,15.33482726,.00017327,97.2835,145.8360,102.1106,258.0331,0,U,68103,999,1953,.11988415E-2,.38874E-3,0
STARLINK-37041,2026-044D,2026-07-04T20:13:09.196320,15.33472094,.00016997,97.2838,145.8430,99.2388,260.9047,0,U,68104,999,1953,.11785415E-2,.38199E-3,0
STARLINK-37021,2026-044E,2026-07-04T15:27:20.913120,15.33488463,.00025297,97.2850,145.6523,95.4741,264.6791,0,U,68105,999,1950,.20968612E-2,.68332E-3,0
STARLINK-37024,2026-044F,2026-07-04T20:05:21.621984,15.33437468,.00019462,97.2839,145.8499,110.0238,250.1214,0,U,68106,999,1953,.1488545E-2,.48279E-3,0
STARLINK-37005,2026-044G,2026-07-04T20:17:05.138304,15.33475348,.00020546,97.2853,145.8388,96.5232,263.6244,0,U,68107,999,1953,.15797776E-2,.51324E-3,0
STARLINK-37017,2026-044H,2026-07-04T21:35:22.413408,15.33485385,.00015385,97.2839,145.9178,100.2084,259.9332,0,U,68108,999,1954,.11737468E-2,.38058E-3,0
STARLINK-36833,2026-044J,2026-07-04T19:53:34.853568,15.33506829,.00023606,97.2839,145.8615,92.9480,267.2033,0,U,68109,999,1953,.15905572E-2,.5173E-3,0
STARLINK-36830,2026-044K,2026-07-04T15:15:35.505504,15.33497283,.00005419,97.2843,145.6648,147.8925,212.2351,0,U,68110,999,1950,.14515374E-2,.47156E-3,0
STARLINK-36791,2026-044L,2026-07-04T19:49:39.859392,15.33506163,.00023699,97.2836,145.8662,96.6269,263.5244,0,U,68111,999,1953,.15159592E-2,.49283E-3,0
STARLINK-36893,2026-044M,2026-07-04T19:45:44.887680,15.33487081,.00018768,97.2832,145.8702,101.5100,258.6354,0,U,68112,999,1953,.13976158E-2,.45378E-3,0
STARLINK-36937,2026-044N,2026-07-04T19:37:55.121376,15.33482641,.00020418,97.2833,145.8769,100.8022,259.3451,0,U,68113,999,1953,.14297895E-2,.46425E-3,0
STARLINK-36229,2026-044P,2026-07-04T14:59:56.293440,15.33476697,.00018592,97.2833,145.6804,98.6758,261.4695,0,U,68114,999,1950,.12511202E-2,.40575E-3,0
STARLINK-36392,2026-044Q,2026-07-04T14:52:06.301632,15.33472726,.00016173,97.2835,145.6866,102.9046,257.2378,0,U,68115,999,1950,.11368263E-2,.36838E-3,0
STARLINK-36805,2026-044R,2026-07-04T21:04:03.277344,15.33488680,.00019195,97.2834,145.9486,95.1496,264.9966,0,U,68116,999,1954,.14314445E-2,.46488E-3,0
STARLINK-36844,2026-044S,2026-07-04T21:00:09.589536,15.33465561,.00021595,97.2844,145.9531,100.9143,259.2343,0,U,68117,999,1954,.18408032E-2,.59867E-3,0
STARLINK-36789,2026-044T,2026-07-04T14:40:20.805888,15.33506635,.00010316,97.2816,145.6973,286.4097,73.7032,0,U,68118,999,1950,.14616374E-2,.47501E-3,0
STARLINK-36850,2026-044U,2026-07-04T14:36:26.036352,15.33494015,.0001517,97.2844,145.7024,90.3124,269.8293,0,U,68119,999,1950,.14197423E-2,.46112E-3,0
STARLINK-36868,2026-044V,2026-07-04T20:48:23.514048,15.33481191,.00019333,97.2831,145.9651,87.5145,272.6319,0,U,68120,999,1954,.13785523E-2,.44746E-3,0
STARLINK-36855,2026-044W,2026-07-04T14:28:37.267968,15.33477362,.00023017,97.2838,145.7117,104.2849,255.8649,0,U,68121,999,1950,.19045785E-2,.61984E-3,0
STARLINK-36366,2026-044X,2026-07-04T20:40:33.807360,15.33489314,.00010944,97.2830,145.9724,95.9890,264.1477,0,U,68122,999,1954,.1416382E-2,.45994E-3,0
STARLINK-36922,2026-044Y,2026-07-04T20:32:45.691296,15.33438236,.00028851,97.2837,145.9788,95.4845,264.6727,0,U,68123,999,1954,.12081295E-2,.39126E-3,0
STARLINK-36938,2026-044Z,2026-07-04T20:28:12.357120,15.33483129,.00018281,97.2840,148.8795,91.3830,268.7622,0,U,68124,999,1973,.13919265E-2,.45186E-3,0
STARLINK-36839,2026-044AA,2026-07-05T01:18:33.353280,15.33520272,.00018911,97.2835,146.1690,108.6400,251.5048,0,U,68125,999,1957,.15093509E-2,.49087E-3,0
